STARLINK-30802          
1 58150U 23166A   26068.68176871  .00000364  00000+0  24411-4 0  9991
2 58150  53.1605 219.9521 0001077  72.7242 287.3877 15.30185512133177
KUIPER-00209            
1 67776U 26030N   26068.61786546  .00035298  00000+0  11963-2 0  9997
2 67776  51.8838 220.0775 0012191  59.1967 301.0215 15.30161950  5077
